#aV2006  4 18  0  0   .00000000      96 DD+AD WGS84 FIT  NGA
## 1371 172800.00000000   900.00000000 53843  .0000000000000
+   29     1  2  3  4  5  6  7  8  9 10 11 13 14 15 16 17 18
+         19 20 21 22 23 24 25 26 27 28 29 30  0  0  0  0  0
+          0  0  0  0  0  0  0  0  0  0  0  0  0  0  0  0  0
+          0  0  0  0  0  0  0  0  0  0  0  0  0  0  0  0  0
+          0  0  0  0  0  0  0  0  0  0  0  0  0  0  0  0  0
++         0  0  0  0  0  0  0  0  0  0  0  0  0  0  0  0  0
++         0  0  0  0  0  0  0  0  0  0  0  0  0  0  0  0  0
++         0  0  0  0  0  0  0  0  0  0  0  0  0  0  0  0  0
++         0  0  0  0  0  0  0  0  0  0  0  0  0  0  0  0  0
++         0  0  0  0  0  0  0  0  0  0  0  0  0  0  0  0  0
%c cc cc ccc ccc cccc cccc cccc cccc ccccc ccccc ccccc ccccc
%c cc cc ccc ccc cccc cccc cccc cccc ccccc ccccc ccccc ccccc
%f  0.0000000  0.000000000  0.00000000000  0.000000000000000
%f  0.0000000  0.000000000  0.00000000000  0.000000000000000
%i    0    0    0    0      0      0      0      0         0
%i    0    0    0    0      0      0      0      0         0
/*      NGA, ST. LOUIS,MO.                                  
/*   EPHEMERIS COMPUTED FROM  3 DAYS OF DATA                
/* CCCCCCCCCCCCCCCCCCCCCCCCCCCCCCCCCCCCCCCCCCCCCCCCCCCCCCCCC
/* CCCCCCCCCCCCCCCCCCCCCCCCCCCCCCCCCCCCCCCCCCCCCCCCCCCCCCCCC
*  2006  4 18  3  0   .00000000                                                 
P  1  14764.124944 -20937.211201   7117.250668     47.659723                    
V  1   7571.297406  -4784.181942 -30661.317672       .021213                    
P  2  -6880.897962  13952.170105  21242.570059     -8.446369                    
V  2 -26785.672577  -6927.909906  -4266.653185       .022649                    
P  3   8465.195374 -22951.335610 -10123.259456     91.317436                    
V  3  10777.342665  -7785.354882  27402.839521       .032758                    
P  4 -18144.483520   8325.316231  17649.603792    207.811161                    
V  4 -21257.960750  -7201.126350 -18071.792096       .100075                    
P  5  13661.930150  21835.422145   6634.385764   -143.274065                    
V  5     67.241926   9264.706134 -29588.264392       .644854                    
P  6  17135.984771   3258.373750  20242.504697    478.122369                    
V  6 -16004.831836  19701.790967  10399.192019       .224612                    
P  7  20521.700268 -15156.150152   8001.714963    529.177504                    
V  7  -3854.010750   9465.334931  28859.059999       .040924                    
P  8 -23984.425130   1605.713931 -11874.020928    -62.916557                    
V  8 -13657.919265  -5683.269158  26754.939575      -.013076                    
P  9  15143.607610  14918.567194 -16640.971125     16.535760                    
V  9 -19924.738370  -2425.718131 -20714.601987       .016869                    
P 10    212.340425  24694.468091   9246.862542     81.959667                    
V 10  -5494.323332 -10897.198828  29235.156984       .006659                    
P 11 -17153.295180 -13714.178462 -15167.537091    321.264974                    
V 11  19462.942869  -1320.295174 -20659.338075       .025882                    
P 13 -17139.275088  -1449.430977  20135.253036     55.345218                    
V 13  17565.406864 -18769.629072  13602.998454       .027394                    
P 14  20901.466725 -14614.955126  -7260.671771    -15.743365                    
V 14  -5078.661554   8028.718586 -30544.986854       .007310                    
P 15  24112.770732   -904.545907 -11699.755941    598.399313                    
V 15  13119.997674   6466.483080  26530.239423       .062629                    
P 16   4294.047497 -21822.129085  14531.090105     37.445193                    
V 16   7083.918199  17047.519836  23748.437590       .022404                    
P 17 -21121.985712  13588.889974  -8510.707401     83.666458                    
V 17   5513.492789  -9680.439901 -29275.869840       .044128                    
P 18  16129.925432   7918.797416 -19558.787971   -231.303935                    
V 18   4921.008023  24496.451605  13613.297715      -.017733                    
P 19   -234.221338 -18225.442280 -19198.324416    -14.788827                    
V 19  18942.837317 -15793.970896  14722.003750       .015753                    
P 20 -12940.849915 -21497.953694   8671.820308    -28.430934                    
V 20   -698.925438 -11428.349125 -29026.021868       .006935                    
P 21  26177.100520   5167.260097  -2921.297116     22.238959                    
V 21   2804.018332   3780.343157  30748.673322       .028799                    
P 22  13576.725098  -7859.424073 -21279.839653     86.632730                    
V 22   6891.982198  26521.119766  -5363.246992       .039175                    
P 23  -8883.692356 -12313.179698  21687.353414    143.755329                    
V 23  19337.917327 -19906.333060  -3518.505003      -.010467                    
P 24 -25279.659086  -1098.446758   8732.782298    101.564376                    
V 24  -9588.000534  -5274.221266 -28953.579798       .028423                    
P 25  13900.751667 -12055.999441  19602.941600     11.856629                    
V 25  23595.301011   4626.464487 -14054.248872       .039200                    
P 26  -2477.836053  19325.709557 -18140.893844    -89.674383                    
V 26 -16795.256685  14930.600128  19169.778411      -.106509                    
P 27 -26398.550387  -3990.605907   -953.423844     44.803579                    
V 27  -1428.324052  -2943.845216  31442.487141       .017122                    
P 28 -14675.733593   3578.422498 -21564.999881     29.258621                    
V 28  -7564.722426 -27025.746629    315.673187      -.008086                    
P 29  -6198.696638  20915.673295 -14718.025445    587.681767                    
V 29 -14337.961325  12840.186004  24163.604393       .081270                    
P 30  16403.564571  13880.291858  15409.849388    156.960006                    
V 30   4150.506400  19769.427363 -21717.618255       .481633                    
EOF
